{
  "type": "FeatureCollection",
  "features": [
    {
      "type": "Feature",
      "geometry": {
        "type": "Polygon",
        "coordinates": [
          [
            [
              70.2362485260421,
              15.789748486747795
            ],
            [
              70.25634606514394,
              15.831505883781466
            ],
            [
              70.26124234807463,
              15.835699784565659
            ],
            [
              70.3179503320689,
              15.848980956301883
            ],
            [
              70.32449446991744,
              15.848693537295626
            ],
            [
              70.32971348074956,
              15.84486106318215
            ],
            [
              70.33619856782781,
              15.833989266145817
            ],
            [
              70.3441964850393,
              15.81470870985487
            ],
            [
              70.34580155256617,
              15.78133747309075
            ],
            [
              70.33945040098047,
              15.757116938829249
            ],
            [
              70.30588947354975,
              15.725209908621473
            ],
            [
              70.26928501057218,
              15.681349885564714
            ],
            [
              70.26406404475023,
              15.678438132772387
            ],
            [
              70.24328823198748,
              15.676079517800598
            ],
            [
              70.2378531366234,
              15.67777784125815
            ],
            [
              70.1983922015042,
              15.702567139503843
            ],
            [
              70.1951990084003,
              15.706517700363719
            ],
            [
              70.19422360222352,
              15.711445347402485
            ],
            [
              70.20108678432247,
              15.754251610594268
            ],
            [
              70.2362485260421,
              15.789748486747795
            ]
          ]
        ]
      },
      "properties": {
        "kind": "forecast",
        "horizon_hours": 48,
        "valid_at": "2026-01-16T06:30:00+00:00",
        "area_km2": 197.1853820093961,
        "coastline_intersects": false,
        "affected_shoreline_km": 0.0,
        "distance_to_coast_km": 326.2467136905456,
        "coastline_source": "Natural Earth (data\\raw\\ne_10m_coastline.geojson)",
        "coastline_covers_aoi": true,
        "coastline_eta": null
      }
    },
    {
      "type": "Feature",
      "geometry": {
        "type": "Polygon",
        "coordinates": [
          [
            [
              70.24673739538005,
              15.635919282155713
            ],
            [
              70.24122859743899,
              15.635904294977637
            ],
            [
              70.23574844850025,
              15.636448406157715
            ],
            [
              70.23035719958392,
              15.637545633963311
            ],
            [
              70.22511412655228,
              15.639183915306436
            ],
            [
              70.22007687972999,
              15.641345238068896
            ],
            [
              70.21530085120168,
              15.644005838711355
            ],
            [
              70.1766933373371,
              15.668201426702014
            ],
            [
              70.17263919539988,
              15.671014545937389
            ],
            [
              70.16887853376815,
              15.674187380764428
            ],
            [
              70.16544524061044,
              15.677691352369457
            ],
            [
              70.16237026008162,
              15.681494897687392
            ],
            [
              70.15968131337314,
              15.68556375328358
            ],
            [
              70.15740264858442,
              15.689861263589949
            ],
            [
              70.15555482167989,
              15.694348710737408
            ],
            [
              70.1541545105237,
              15.698985663030763
            ],
            [
              70.15321436369338,
              15.703730338942206
            ],
            [
              70.15274288546617,
              15.708539983357248
            ],
            [
              70.152744358051,
              15.71337125269317
            ],
            [
              70.15321880180737,
              15.718180605426763
            ],
            [
              70.1589466135396,
              15.756773223423092
            ],
            [
              70.15986245671503,
              15.761406200468677
            ],
            [
              70.16121738828055,
              15.765937137867429
            ],
            [
              70.16299979359073,
              15.77032709927231
            ],
            [
              70.16519438172918,
              15.774538357369277
            ],
            [
              70.16778231609621,
              15.778534718373171
            ],
            [
              70.22258072258612,
              15.85499539833664
            ],
            [
              70.22593437399976,
              15.859187929917946
            ],
            [
              70.22972065657784,
              15.863019871692305
            ],
            [
              70.23389846806408,
              15.866449602742783
            ],
            [
              70.23842244646289,
              15.869439868899752
            ],
            [
              70.24324346281966,
              15.871958188085618
            ],
            [
              70.24830915528538,
              15.873977203799317
            ],
            [
              70.25356449863719,
              15.875474982865548
            ],
            [
              70.30855648307764,
              15.888167438168644
            ],
            [
              70.31366511402344,
              15.889090247422848
            ],
            [
              70.3188429536314,
              15.88952040507652
            ],
            [
              70.3240393906672,
              15.889453706964357
            ],
            [
              70.32920363179021,
              15.888890805465179
            ],
            [
              70.33428519916268,
              15.887837203094062
            ],
            [
              70.3392344249365,
              15.886303198581691
            ],
            [
              70.34400293773086,
              15.88430378597471
            ],
            [
              70.3485441362957,
              15.881858507754549
            ],
            [
              70.35281364568768,
              15.878991263426459
            ],
            [
              70.35676975146316,
              15.87573007546913
            ],
            [
              70.36037380761769,
              15.872106814955345
            ],
            [
              70.36359061426765,
              15.868156889550031
            ],
            [
              70.36638876137744,
              15.863918896960937
            ],
            [
              70.37227496966736,
              15.85394936523753
            ],
            [
              70.37545110149274,
              15.847578556827845
            ],
            [
              70.382383001193,
              15.830779812702978
            ],
            [
              70.38427816838251,
              15.825302845963858
            ],
            [
              70.38551994993968,
              15.819653259054109
            ],
            [
              70.38609240171621,
              15.81390384303632
            ],
            [
              70.38731384926696,
              15.78383764065658
            ],
            [
              70.38729738961051,
              15.779466613124299
            ],
            [
              70.38689363523412,
              15.775113082819678
            ],
            [
              70.38610558935994,
              15.770809165230574
            ],
            [
              70.38189310086317,
              15.752430934045785
            ],
            [
              70.3804555273452,
              15.747395785929095
            ],
            [
              70.37849260211152,
              15.742529890482423
            ],
            [
              70.3760250411965,
              15.737884509919162
            ],
            [
              70.37307887181915,
              15.733508580006173
            ],
            [
              70.36968515709647,
              15.729448195092743
            ],
            [
              70.30048353324818,
              15.654792945005136
            ],
            [
              70.29685993043627,
              15.651247780215447
            ],
            [
              70.29289556028867,
              15.648063413046435
            ],
            [
              70.28862852405058,
              15.645270436715853
            ],
            [
              70.28409982551732,
              15.642895683147351
            ],
            [
              70.27935297742017,
              15.640961965664102
            ],
            [
              70.27443358393671,
              15.639487860247971
            ],
            [
              70.26938890330914,
              15.63848752744582
            ],
            [
              70.25777222726157,
              15.63675343162719
            ],
            [
              70.25267273011609,
              15.636237374214408
            ],
            [
              70.24673739538005,
              15.635919282155713
            ]
          ]
        ]
      },
      "properties": {
        "kind": "uncertainty_cone",
        "horizon_hours": 48,
        "area_km2": 509.7871471562253
      }
    }
  ]
}