{
  "type": "FeatureCollection",
  "features": [
    {
      "type": "Feature",
      "geometry": {
        "type": "Polygon",
        "coordinates": [
          [
            [
              69.9496238548237,
              15.985755111036996
            ],
            [
              69.98109044165805,
              16.01468055839058
            ],
            [
              69.99894477750267,
              16.044538416519746
            ],
            [
              70.02967016111661,
              16.067297398676292
            ],
            [
              70.0347975612901,
              16.068114708119513
            ],
            [
              70.064696185982,
              16.064025354028182
            ],
            [
              70.08143128654095,
              16.042505025340716
            ],
            [
              70.0839164507554,
              16.03347733983975
            ],
            [
              70.08093640011121,
              16.014703832642976
            ],
            [
              70.07909537636453,
              16.010641555497674
            ],
            [
              70.04176950508493,
              15.967240379872925
            ],
            [
              70.02741010833273,
              15.9585093269501
            ],
            [
              69.99369738730206,
              15.93092755089214
            ],
            [
              69.98201606359319,
              15.90980105331111
            ],
            [
              69.97743823319787,
              15.906033914783224
            ],
            [
              69.97143030309753,
              15.905913885944305
            ],
            [
              69.93361006186265,
              15.922216623642843
            ],
            [
              69.93042652675834,
              15.925195057476602
            ],
            [
              69.92429231933811,
              15.937399035363605
            ],
            [
              69.92399988899676,
              15.942477076375004
            ],
            [
              69.92807673640779,
              15.953708102322524
            ],
            [
              69.93142137404423,
              15.970139820942101
            ],
            [
              69.93556502510542,
              15.975967033110285
            ],
            [
              69.9496238548237,
              15.985755111036996
            ]
          ]
        ]
      },
      "properties": {
        "kind": "forecast",
        "horizon_hours": 24,
        "valid_at": "2026-01-15T06:30:00+00:00",
        "area_km2": 158.78556444650195,
        "coastline_intersects": false,
        "affected_shoreline_km": 0.0,
        "distance_to_coast_km": 348.4699704006236,
        "coastline_source": "Natural Earth (data\\raw\\ne_10m_coastline.geojson)",
        "coastline_covers_aoi": true,
        "coastline_eta": null
      }
    },
    {
      "type": "Feature",
      "geometry": {
        "type": "Polygon",
        "coordinates": [
          [
            [
              70.01391355971963,
              15.875792050882412
            ],
            [
              70.00974173737671,
              15.872138568204317
            ],
            [
              70.00521266087856,
              15.868908173587748
            ],
            [
              70.00037194675674,
              15.866133392481206
            ],
            [
              69.99526834291578,
              15.863842161788103
            ],
            [
              69.98995323838895,
              15.86205754916093
            ],
            [
              69.98448014678347,
              15.860797521252524
            ],
            [
              69.97890416857157,
              15.86007476323302
            ],
            [
              69.97328143758747,
              15.859896551369868
            ],
            [
              69.96766855724144,
              15.860264679939396
            ],
            [
              69.96212203206106,
              15.861175443197585
            ],
            [
              69.95669770021426,
              15.86261967258972
            ],
            [
              69.95145017265948,
              15.864582828829164
            ],
            [
              69.91524968548357,
              15.88018478502312
            ],
            [
              69.91025631430739,
              15.882632244278884
            ],
            [
              69.90553989980256,
              15.885549359109435
            ],
            [
              69.90114744982695,
              15.888907062922476
            ],
            [
              69.89712275048991,
              15.892671897456111
            ],
            [
              69.89350592997974,
              15.89680634555922
            ],
            [
              69.89033305851257,
              15.901269204420222
            ],
            [
              69.88763578838919,
              15.906015995556453
            ],
            [
              69.88227932345987,
              15.916669317951861
            ],
            [
              69.8800829465554,
              15.921656294157827
            ],
            [
              69.87841178734847,
              15.9268304607403
            ],
            [
              69.87728256948319,
              15.93214016558648
            ],
            [
              69.87670660965263,
              15.937532399472888
            ],
            [
              69.87668970295495,
              15.942953325028988
            ],
            [
              69.87723206327325,
              15.948348814132517
            ],
            [
              69.87832831934452,
              15.953664988377822
            ],
            [
              69.88507637737828,
              15.979563316764615
            ],
            [
              69.88676539669075,
              15.984878614785497
            ],
            [
              69.88900814134504,
              15.989998711729607
            ],
            [
              69.89178108123762,
              15.99486979525882
            ],
            [
              69.89380164857872,
              15.99802472916379
            ],
            [
              69.89656811207936,
              16.001949259276895
            ],
            [
              69.8996790013934,
              16.00562463498302
            ],
            [
              69.96389647740295,
              16.07502060603842
            ],
            [
              69.9675702842301,
              16.078633844806998
            ],
            [
              69.9715768563342,
              16.08189985009061
            ],
            [
              69.9995149778752,
              16.102590780013678
            ],
            [
              70.00398061545961,
              16.105577361351912
            ],
            [
              70.0087240650535,
              16.108132600105712
            ],
            [
              70.01370088891892,
              16.110232553434802
            ],
            [
              70.01886445775318,
              16.111857543949384
            ],
            [
              70.02416638836456,
              16.11299234449578
            ],
            [
              70.02955699796951,
              16.113626321164432
            ],
            [
              70.03498577081034,
              16.113753533164836
            ],
            [
              70.0404018326711,
              16.11337278862098
            ],
            [
              70.06729318096662,
              16.110209914512446
            ],
            [
              70.07305003553994,
              16.109235990785457
            ],
            [
              70.0786708109754,
              16.10768840302465
            ],
            [
              70.08409450018893,
              16.10558394970457
            ],
            [
              70.08926224034357,
              16.102945473104004
            ],
            [
              70.09411795288241,
              16.09980161081102
            ],
            [
              70.0986089530042,
              16.096186484231332
            ],
            [
              70.10268652191795,
              16.09213932751685
            ],
            [
              70.10630643563371,
              16.08770406098254
            ],
            [
              70.11903858345572,
              16.070310635295453
            ],
            [
              70.12198588507133,
              16.065834536007547
            ],
            [
              70.12446670439837,
              16.06110140647784
            ],
            [
              70.12645733189164,
              16.05615654660243
            ],
            [
              70.12817679966794,
              16.051177280594096
            ],
            [
              70.12962712052128,
              16.04619867946648
            ],
            [
              70.13058047508365,
              16.041109136555665
            ],
            [
              70.13102823381892,
              16.035954924979805
            ],
            [
              70.13096636521705,
              16.0307829022729
            ],
            [
              70.13039547103128,
              16.025640084322973
            ],
            [
              70.12750239182202,
              16.007689008422222
            ],
            [
              70.12631364045527,
              16.002196584034337
            ],
            [
              70.1245447387069,
              15.996852302507376
            ],
            [
              70.12221465356555,
              15.9917133310803
            ],
            [
              70.11934834949966,
              15.98683463663197
            ],
            [
              70.11597651992152,
              15.982268398320926
            ],
            [
              70.10202739388524,
              15.965304231543032
            ],
            [
              70.10158197444665,
              15.964769456888622
            ],
            [
              70.09347066592447,
              15.955155477644855
            ],
            [
              70.09221320747942,
              15.953716701907828
            ],
            [
              70.07784330783925,
              15.937840373986345
            ],
            [
              70.07530607709788,
              15.935217368227462
            ],
            [
              70.01391355971963,
              15.875792050882412
            ]
          ]
        ]
      },
      "properties": {
        "kind": "uncertainty_cone",
        "horizon_hours": 24,
        "area_km2": 511.9741722730335
      }
    }
  ]
}