{
  "type": "FeatureCollection",
  "features": [
    {
      "type": "Feature",
      "geometry": {
        "type": "Polygon",
        "coordinates": [
          [
            [
              70.63652881143895,
              15.942275945010003
            ],
            [
              70.6369117485227,
              15.972419376423582
            ],
            [
              70.63963286838009,
              15.978779297839406
            ],
            [
              70.6454838355241,
              15.98269658422206
            ],
            [
              70.68327917600777,
              15.994191134168657
            ],
            [
              70.72061942664153,
              15.991291901110174
            ],
            [
              70.72747255938798,
              15.988650671894975
            ],
            [
              70.73161987828136,
              15.982749552993592
            ],
            [
              70.74322546249539,
              15.946420792947556
            ],
            [
              70.74332345554042,
              15.910617706109248
            ],
            [
              70.72127959518322,
              15.827084099121237
            ],
            [
              70.69318005139537,
              15.765172056973405
            ],
            [
              70.68575371282678,
              15.759449580975973
            ],
            [
              70.64588662033208,
              15.760145906300071
            ],
            [
              70.60077066696508,
              15.79015816024246
            ],
            [
              70.59665887358408,
              15.79631061619712
            ],
            [
              70.59895720176924,
              15.865157153588337
            ],
            [
              70.62598900605036,
              15.901011049258866
            ],
            [
              70.63652881143895,
              15.942275945010003
            ]
          ]
        ]
      },
      "properties": {
        "kind": "forecast",
        "horizon_hours": 72,
        "valid_at": "2026-01-17T06:30:00+00:00",
        "area_km2": 297.8468561277722,
        "coastline_intersects": false,
        "affected_shoreline_km": 0.0,
        "distance_to_coast_km": 281.2464016815413,
        "coastline_source": "Natural Earth (data\\raw\\ne_10m_coastline.geojson)",
        "coastline_covers_aoi": true,
        "coastline_eta": null
      }
    },
    {
      "type": "Feature",
      "geometry": {
        "type": "Polygon",
        "coordinates": [
          [
            [
              70.73820218259489,
              15.747236255344179
            ],
            [
              70.73555694851196,
              15.742112863502546
            ],
            [
              70.73241337153749,
              15.737260757221547
            ],
            [
              70.72880085223055,
              15.732725264080813
            ],
            [
              70.72475316518218,
              15.728548751162
            ],
            [
              70.72030814293808,
              15.72477022991743
            ],
            [
              70.71550732233715,
              15.72142499242007
            ],
            [
              70.71039555657363,
              15.718544282362592
            ],
            [
              70.70502059659826,
              15.71615500384908
            ],
            [
              70.69943264574731,
              15.71427947067157
            ],
            [
              70.69368389172843,
              15.712935198387632
            ],
            [
              70.68782802029247,
              15.71213474111937
            ],
            [
              70.68191971508412,
              15.711885574580453
            ],
            [
              70.65069831362399,
              15.712029411001673
            ],
            [
              70.6445865796362,
              15.712353653744062
            ],
            [
              70.6385388245989,
              15.713267701427629
            ],
            [
              70.63261554696184,
              15.71476241145696
            ],
            [
              70.62687600334245,
              15.716822832358462
            ],
            [
              70.62137761709592,
              15.719428352943833
            ],
            [
              70.61617540499205,
              15.722552907975384
            ],
            [
              70.57398512428298,
              15.750809214155995
            ],
            [
              70.56912252270915,
              15.754426550915925
            ],
            [
              70.56465800326639,
              15.758496936911406
            ],
            [
              70.560636399759,
              15.762979519849567
            ],
            [
              70.55709810861173,
              15.767829307460419
            ],
            [
              70.55407868285049,
              15.772997618331214
            ],
            [
              70.55160847430834,
              15.778432569844655
            ],
            [
              70.54971232767939,
              15.78407959835886
            ],
            [
              70.5484093295372,
              15.789882006439871
            ],
            [
              70.54771261489685,
              15.79578153168055
            ],
            [
              70.54762923333298,
              15.801718931416875
            ],
            [
              70.54999685046936,
              15.864410269572128
            ],
            [
              70.55050043425393,
              15.870129735856048
            ],
            [
              70.55157352185071,
              15.875775181038092
            ],
            [
              70.5532060875355,
              15.881293612625134
            ],
            [
              70.5914368609773,
              15.990200264972987
            ],
            [
              70.59376209461871,
              15.995849876166064
            ],
            [
              70.59667389067579,
              16.001239174158346
            ],
            [
              70.60014161342646,
              16.006311373112357
            ],
            [
              70.60412876131184,
              16.0110130244229
            ],
            [
              70.60859335045186,
              16.015294580753626
            ],
            [
              70.6134883563878,
              16.019110919048114
            ],
            [
              70.6187622094186,
              16.02242181695796
            ],
            [
              70.62435933831225,
              16.02519237762051
            ],
            [
              70.63022075664264,
              16.027393398264003
            ],
            [
              70.66430850371559,
              16.038278660345103
            ],
            [
              70.6702200347893,
              16.03985327393825
            ],
            [
              70.67626478617855,
              16.040848472368584
            ],
            [
              70.68238216978438,
              16.04125428136082
            ],
            [
              70.68851086775497,
              16.041066634288736
            ],
            [
              70.72459994032532,
              16.03820514607371
            ],
            [
              70.73061674777482,
              16.037435826644316
            ],
            [
              70.73652526599851,
              16.03609449665451
            ],
            [
              70.74226747620253,
              16.034194328770234
            ],
            [
              70.74778699706872,
              16.03175398286034
            ],
            [
              70.75302963955403,
              16.028797422277826
            ],
            [
              70.75794393989098,
              16.025353677969278
            ],
            [
              70.76248166550768,
              16.02145656275749
            ],
            [
              70.76659828886525,
              16.01714433863521
            ],
            [
              70.77025342454044,
              16.012459340371812
            ],
            [
              70.7734112252577,
              16.007447559164667
            ],
            [
              70.77604073299375,
              16.002158190458573
            ],
            [
              70.77811618173487,
              15.996643150406541
            ],
            [
              70.78971405142615,
              15.960312064798366
            ],
            [
              70.79126948376177,
              15.954360701253712
            ],
            [
              70.7921800102631,
              15.948285594240849
            ],
            [
              70.79243591535439,
              15.942151959817204
            ],
            [
              70.7920726334042,
              15.911532135972953
            ],
            [
              70.79158008561916,
              15.904681259649472
            ],
            [
              70.79027171329906,
              15.897931555576063
            ],
            [
              70.77802854075279,
              15.850208768468917
            ],
            [
              70.77788783722166,
              15.849670950922075
            ],
            [
              70.7748804925372,
              15.838397146181961
            ],
            [
              70.77465487097557,
              15.837575676977691
            ],
            [
              70.76818215497589,
              15.814668929729065
            ],
            [
              70.7668219932056,
              15.810473180367236
            ],
            [
              70.76514420648728,
              15.806386645435216
            ],
            [
              70.73820218259489,
              15.747236255344179
            ]
          ]
        ]
      },
      "properties": {
        "kind": "uncertainty_cone",
        "horizon_hours": 72,
        "area_km2": 754.0423041182287
      }
    }
  ]
}