{
  "type": "FeatureCollection",
  "features": [
    {
      "type": "Feature",
      "geometry": {
        "type": "Polygon",
        "coordinates": [
          [
            [
              69.64988465707745,
              16.074026887076624
            ],
            [
              69.66538896406364,
              16.085038500246043
            ],
            [
              69.67311253458415,
              16.09348612680593
            ],
            [
              69.68361997330472,
              16.103119804837284
            ],
            [
              69.69067160149295,
              16.112045997801285
            ],
            [
              69.71550776800828,
              16.138800279294447
            ],
            [
              69.72629715973856,
              16.15692217297987
            ],
            [
              69.75423687489553,
              16.184658502560968
            ],
            [
              69.76761818241333,
              16.196384173130323
            ],
            [
              69.77730151560672,
              16.20729630513479
            ],
            [
              69.78288971188512,
              16.210950055489086
            ],
            [
              69.78605218634677,
              16.211547933248884
            ],
            [
              69.7993162076934,
              16.20882237586834
            ],
            [
              69.80422395402123,
              16.20551391928894
            ],
            [
              69.80759352793488,
              16.197806017202186
            ],
            [
              69.80788798258253,
              16.19514662382523
            ],
            [
              69.79969210470328,
              16.178877749494468
            ],
            [
              69.79162781428771,
              16.171892968100003
            ],
            [
              69.77837367192114,
              16.156265985023598
            ],
            [
              69.75171063879145,
              16.130934065406553
            ],
            [
              69.7461770429339,
              16.12305278298418
            ],
            [
              69.72913748262935,
              16.107723816245816
            ],
            [
              69.71685051096324,
              16.08959021749635
            ],
            [
              69.70742917151762,
              16.08352183471976
            ],
            [
              69.69687727356947,
              16.072676382541694
            ],
            [
              69.68741272852886,
              16.05707823624454
            ],
            [
              69.67958776644146,
              16.048464593911213
            ],
            [
              69.66905194172018,
              16.040446352428976
            ],
            [
              69.6637704316102,
              16.038686209726436
            ],
            [
              69.65087292588663,
              16.037554313017427
            ],
            [
              69.64790474029957,
              16.038799512022017
            ],
            [
              69.6452264091801,
              16.042054124026734
            ],
            [
              69.64023776220267,
              16.052978348109427
            ],
            [
              69.63980931964767,
              16.05559207020174
            ],
            [
              69.64988465707745,
              16.074026887076624
            ]
          ]
        ]
      },
      "properties": {
        "area_km2": 89.768,
        "acquisition_at": "2026-01-14T06:30:00+00:00",
        "synthetic": true
      }
    }
  ]
}