{
  "type": "FeatureCollection",
  "features": [
    {
      "type": "Feature",
      "geometry": {
        "type": "Polygon",
        "coordinates": [
          [
            [
              68.99449029494693,
              22.637990520595373
            ],
            [
              68.99593575020866,
              22.676721061430605
            ],
            [
              69.0224925157914,
              22.73262306907414
            ],
            [
              69.06605795396628,
              22.761116017687833
            ],
            [
              69.07152889263081,
              22.762296450237137
            ],
            [
              69.07694068229813,
              22.76090096354552
            ],
            [
              69.08151336072783,
              22.75634741558846
            ],
            [
              69.09992107367422,
              22.72094690128608
            ],
            [
              69.10305514608102,
              22.711291590054923
            ],
            [
              69.09318006512093,
              22.649842024813186
            ],
            [
              69.0883895431045,
              22.63923403824246
            ],
            [
              69.07995295864545,
              22.607692976972608
            ],
            [
              69.06637721479959,
              22.57035139355496
            ],
            [
              69.06004748876437,
              22.54501432674201
            ],
            [
              69.04227399904197,
              22.510542756599317
            ],
            [
              69.01511860560953,
              22.48946858132888
            ],
            [
              68.98927064910376,
              22.48783295517862
            ],
            [
              68.98098653311263,
              22.4918501354913
            ],
            [
              68.97263214142345,
              22.5018320927232
            ],
            [
              68.97086595581295,
              22.507759069938707
            ],
            [
              68.97425642907436,
              22.53326526539149
            ],
            [
              68.97647848469897,
              22.57438220413787
            ],
            [
              68.98230597147356,
              22.58479298932387
            ],
            [
              68.99449029494693,
              22.637990520595373
            ]
          ]
        ]
      },
      "properties": {
        "kind": "forecast",
        "horizon_hours": 48,
        "valid_at": "2026-07-07T01:17:53.956000+00:00",
        "area_km2": 254.32432489808798,
        "coastline_intersects": false,
        "affected_shoreline_km": 0.0,
        "distance_to_coast_km": 4.089009605013516,
        "coastline_source": "Natural Earth (data\\raw\\ne_10m_coastline.geojson)",
        "coastline_covers_aoi": true,
        "coastline_eta": "2026-07-07T03:41:43.632383+00:00"
      }
    },
    {
      "type": "Feature",
      "geometry": {
        "type": "Polygon",
        "coordinates": [
          [
            [
              68.99271523593782,
              22.430159388037413
            ],
            [
              68.9857882881598,
              22.43021702377124
            ],
            [
              68.97889796416442,
              22.430881176310482
            ],
            [
              68.97210554270903,
              22.43214593950318
            ],
            [
              68.96547143574752,
              22.43400006545212
            ],
            [
              68.95905465334536,
              22.436427064108102
            ],
            [
              68.95291228079455,
              22.43940534930689
            ],
            [
              68.94709897249041,
              22.442908429978303
            ],
            [
              68.94166646699702,
              22.446905144861212
            ],
            [
              68.93666312755498,
              22.451359938677054
            ],
            [
              68.93213351207717,
              22.456233177350125
            ],
            [
              68.92442409733064,
              22.465364015016185
            ],
            [
              68.9204689723476,
              22.470524088395955
            ],
            [
              68.91704549705187,
              22.476002745582583
            ],
            [
              68.91418322300582,
              22.48175279828136
            ],
            [
              68.91190687769404,
              22.487724714634556
            ],
            [
              68.91023614945892,
              22.493867045116467
            ],
            [
              68.90918551548367,
              22.500126865139983
            ],
            [
              68.90876411438379,
              22.506450230589266
            ],
            [
              68.9089756645953,
              22.51278264237466
            ],
            [
              68.91443683216971,
              22.578117052777873
            ],
            [
              68.91532747242333,
              22.584655756402046
            ],
            [
              68.93458762201733,
              22.68624543984815
            ],
            [
              68.93664318470069,
              22.694230475889718
            ],
            [
              68.93971764299998,
              22.701928596480652
            ],
            [
              68.96458066612176,
              22.754253638666995
            ],
            [
              68.96752647244969,
              22.759763300576935
            ],
            [
              68.97099543854878,
              22.765004533428662
            ],
            [
              68.9749594244768,
              22.769934733309874
            ],
            [
              68.97938625612045,
              22.774513820214043
            ],
            [
              68.98423998578073,
              22.77870456473129
            ],
            [
              68.98948118387007,
              22.782472891627766
            ],
            [
              69.01422230090043,
              22.79865554715442
            ],
            [
              69.01638329168935,
              22.800016046968764
            ],
            [
              69.0310481024825,
              22.8088987582031
            ],
            [
              69.03739790739866,
              22.81233737234057
            ],
            [
              69.04408642853708,
              22.815171151472725
            ],
            [
              69.05104683163876,
              22.817371772440552
            ],
            [
              69.05820955365799,
              22.818917239375374
            ],
            [
              69.06550300059298,
              22.819792104460042
            ],
            [
              69.07285426604982,
              22.819987622987536
            ],
            [
              69.08018986320977,
              22.81950184113401
            ],
            [
              69.0874364627228,
              22.818339615550745
            ],
            [
              69.09452162898624,
              22.816512564575863
            ],
            [
              69.10137454728495,
              22.814038951565227
            ],
            [
              69.10792673437015,
              22.810943501535192
            ],
            [
              69.11411272523365,
              22.807257152990307
            ],
            [
              69.11987072909497,
              22.803016747468224
            ],
            [
              69.12514324795129,
              22.798264659966925
            ],
            [
              69.1298776514461,
              22.79304837401661
            ],
            [
              69.13402670228102,
              22.787420005716466
            ],
            [
              69.1375490269245,
              22.781435781567346
            ],
            [
              69.15565569144442,
              22.74663405041488
            ],
            [
              69.15753325265403,
              22.74271388050752
            ],
            [
              69.15983558140049,
              22.73746798307505
            ],
            [
              69.16240949064623,
              22.730566235049977
            ],
            [
              69.16417329816427,
              22.723448843106766
            ],
            [
              69.16510692252659,
              22.71619735563705
            ],
            [
              69.16519980061042,
              22.70889484452173
            ],
            [
              69.16445100261404,
              22.701624953018054
            ],
            [
              69.15485461458138,
              22.642206264831398
            ],
            [
              69.15272162249687,
              22.633198299081297
            ],
            [
              69.13976061398053,
              22.591963297341316
            ],
            [
              69.13969047873366,
              22.59174148989767
            ],
            [
              69.11975457041669,
              22.529054765183773
            ],
            [
              69.11631185674868,
              22.520417995383514
            ],
            [
              69.10189630883144,
              22.490595589114324
            ],
            [
              69.09818724810033,
              22.48392781341985
            ],
            [
              69.09371297325211,
              22.477678827273298
            ],
            [
              69.08852767286862,
              22.471924175304522
            ],
            [
              69.08269410779468,
              22.466733417316284
            ],
            [
              69.05828391870264,
              22.44728230174162
            ],
            [
              69.05273087380807,
              22.44326876726745
            ],
            [
              69.04679037777834,
              22.439767500850817
            ],
            [
              69.04051693170464,
              22.43681060973252
            ],
            [
              69.03396807807165,
              22.434425207382944
            ],
            [
              69.02720387451187,
              22.43263316583945
            ],
            [
              69.02028634495794,
              22.431450915961026
            ],
            [
              69.01327891313828,
              22.430889297395204
            ],
            [
              68.99271523593782,
              22.430159388037413
            ]
          ]
        ]
      },
      "properties": {
        "kind": "uncertainty_cone",
        "horizon_hours": 48,
        "area_km2": 843.9844867702253
      }
    }
  ]
}