{
  "type": "FeatureCollection",
  "features": [
    {
      "type": "Feature",
      "geometry": {
        "type": "Polygon",
        "coordinates": [
          [
            [
              69.07966526856505,
              22.291249343902702
            ],
            [
              69.09866334486013,
              22.308898178327645
            ],
            [
              69.12476032769932,
              22.343327486795904
            ],
            [
              69.1642963339172,
              22.387042892332836
            ],
            [
              69.19413178305227,
              22.40631215815102
            ],
            [
              69.26000754972216,
              22.455622136607637
            ],
            [
              69.29966366359466,
              22.47392697927352
            ],
            [
              69.33458447762577,
              22.50768610875518
            ],
            [
              69.34305361959827,
              22.50984825957679
            ],
            [
              69.35194506650821,
              22.505643861118518
            ],
            [
              69.35483881340677,
              22.495642995468867
            ],
            [
              69.3285767428963,
              22.41211824562947
            ],
            [
              69.27109403806706,
              22.34712996629022
            ],
            [
              69.25614352586565,
              22.33935434004883
            ],
            [
              69.23322360175305,
              22.32237430968637
            ],
            [
              69.21595086139169,
              22.30564793504637
            ],
            [
              69.20307899465521,
              22.288112513615477
            ],
            [
              69.10860682154052,
              22.219192711404094
            ],
            [
              69.09522447405443,
              22.216582762151525
            ],
            [
              69.07686163402558,
              22.216175978544385
            ],
            [
              69.04589478615365,
              22.22020194715672
            ],
            [
              69.04016124348837,
              22.224914762973683
            ],
            [
              69.03827680660139,
              22.2306122013818
            ],
            [
              69.04456594086216,
              22.2670844374147
            ],
            [
              69.04893664369766,
              22.272390127938888
            ],
            [
              69.07966526856505,
              22.291249343902702
            ]
          ]
        ]
      },
      "properties": {
        "kind": "forecast",
        "horizon_hours": 72,
        "valid_at": "2026-07-08T01:17:53.956000+00:00",
        "area_km2": 354.80517330794953,
        "coastline_intersects": true,
        "affected_shoreline_km": 16.636592339484952,
        "distance_to_coast_km": 0.0,
        "coastline_source": "Natural Earth (data\\raw\\ne_10m_coastline.geojson)",
        "coastline_covers_aoi": true,
        "coastline_eta": "2026-07-07T03:41:43.632383+00:00"
      }
    },
    {
      "type": "Feature",
      "geometry": {
        "type": "Polygon",
        "coordinates": [
          [
            [
              69.07841641438091,
              22.142946216954293
            ],
            [
              69.06521845770604,
              22.14359170328142
            ],
            [
              69.03985577925562,
              22.146549663666796
            ],
            [
              69.03085868901113,
              22.148025749334703
            ],
            [
              69.02206392054624,
              22.15032906108122
            ],
            [
              69.01355884779792,
              22.153436719902878
            ],
            [
              69.00542798201292,
              22.15731785497983
            ],
            [
              68.997752135582,
              22.161933908779087
            ],
            [
              68.9906076217054,
              22.16723901825139
            ],
            [
              68.98406549770226,
              22.173180468425635
            ],
            [
              68.97819085938718,
              22.179699213996578
            ],
            [
              68.97304219347603,
              22.18673046383229
            ],
            [
              68.96867079445687,
              22.194204322704774
            ],
            [
              68.96512025177134,
              22.202046483976424
            ],
            [
              68.96242601250194,
              22.210178966461342
            ],
            [
              68.96061502405519,
              22.218520888230408
            ],
            [
              68.95970546057602,
              22.226989269746962
            ],
            [
              68.95970653602922,
              22.235499858409213
            ],
            [
              68.96061840604742,
              22.243967966342392
            ],
            [
              68.9645494345891,
              22.268207422394013
            ],
            [
              68.96510213026707,
              22.271242678075993
            ],
            [
              68.96656473604651,
              22.278479254614506
            ],
            [
              68.96856313145021,
              22.286311396559196
            ],
            [
              68.97134608528545,
              22.29393330683784
            ],
            [
              68.97488893261917,
              22.301277087381997
            ],
            [
              68.97916022501323,
              22.308277307359763
            ],
            [
              68.98412200716433,
              22.314871587453382
            ],
            [
              68.98973015223831,
              22.321001157228054
            ],
            [
              69.1058620686383,
              22.436275797028287
            ],
            [
              69.11109169378237,
              22.441061467802918
            ],
            [
              69.11671629476872,
              22.44544319469712
            ],
            [
              69.21096082899726,
              22.51302272581567
            ],
            [
              69.21186054935306,
              22.513659118936378
            ],
            [
              69.2869319010965,
              22.56604489322667
            ],
            [
              69.29452090000703,
              22.570806127879038
            ],
            [
              69.30258319733154,
              22.57484144721177
            ],
            [
              69.31103855619784,
              22.578110674280836
            ],
            [
              69.31980280657507,
              22.58058125742696
            ],
            [
              69.32878868672829,
              22.58222859600939
            ],
            [
              69.33790671625427,
              22.5830362866198
            ],
            [
              69.34706609179611,
              22.58299628726154
            ],
            [
              69.35617559628254,
              22.582108997817226
            ],
            [
              69.3651445123887,
              22.580383255983303
            ],
            [
              69.37388353086878,
              22.57783624871594
            ],
            [
              69.38230564446823,
              22.57449334009646
            ],
            [
              69.39032701828356,
              22.570387817379448
            ],
            [
              69.39786782769976,
              22.565560557821044
            ],
            [
              69.40485305539285,
              22.560059619690914
            ],
            [
              69.41121323933584,
              22.55393976163974
            ],
            [
              69.41688516428202,
              22.547261895316424
            ],
            [
              69.42181248981406,
              22.540092476798858
            ],
            [
              69.4259463087312,
              22.532502843010132
            ],
            [
              69.42924563029285,
              22.524568499835674
            ],
            [
              69.43167778363323,
              22.516368369127164
            ],
            [
              69.43321873750102,
              22.507984002174528
            ],
            [
              69.43385333334692,
              22.499498767543823
            ],
            [
              69.43357542967462,
              22.49099702141291
            ],
            [
              69.4323879564724,
              22.482563268688466
            ],
            [
              69.43030287944765,
              22.47428132325579
            ],
            [
              69.41039090139206,
              22.409821586301284
            ],
            [
              69.41024076396127,
              22.409340634574917
            ],
            [
              69.40778421752862,
              22.401556223034333
            ],
            [
              69.40685928207084,
              22.398798695811397
            ],
            [
              69.40380218575285,
              22.390198719124584
            ],
            [
              69.40073771039165,
              22.382761513484606
            ],
            [
              69.39694115071411,
              22.37562242986309
            ],
            [
              69.39244567894417,
              22.3688436402908
            ],
            [
              69.38729053704922,
              22.362484170505503
            ],
            [
              69.37034413239888,
              22.343487834798356
            ],
            [
              69.37024590298601,
              22.34337788972425
            ],
            [
              69.33249928165088,
              22.301183508410073
            ],
            [
              69.32454056181368,
              22.29334779992979
            ],
            [
              69.25758001168387,
              22.235215516240885
            ],
            [
              69.25188253149129,
              22.230657708200127
            ],
            [
              69.20765297767491,
              22.19809620294026
            ],
            [
              69.20711612752679,
              22.197703824113542
            ],
            [
              69.1582933568641,
              22.162275692343606
            ],
            [
              69.15025981235904,
              22.157061176246565
            ],
            [
              69.14167507872745,
              22.152674938674952
            ],
            [
              69.13263716694833,
              22.149167034657
            ],
            [
              69.12324923404753,
              22.146577492839622
            ],
            [
              69.11361841061044,
              22.144935860962764
            ],
            [
              69.10523568519962,
              22.143934345198492
            ],
            [
              69.09537424041164,
              22.143257004512034
            ],
            [
              69.07841641438091,
              22.142946216954293
            ]
          ]
        ]
      },
      "properties": {
        "kind": "uncertainty_cone",
        "horizon_hours": 72,
        "area_km2": 1361.8600887520668
      }
    }
  ]
}