{
  "type": "FeatureCollection",
  "features": [
    {
      "type": "Feature",
      "geometry": {
        "type": "Polygon",
        "coordinates": [
          [
            [
              68.78338242550437,
              22.947220829729467
            ],
            [
              68.7914772203914,
              22.95667200224707
            ],
            [
              68.7982720908732,
              22.95833435267548
            ],
            [
              68.80241403510283,
              22.95679590605863
            ],
            [
              68.82010361160923,
              22.942256489162784
            ],
            [
              68.83079728974226,
              22.92337123023596
            ],
            [
              68.84212663372838,
              22.89680241084784
            ],
            [
              68.85953207403601,
              22.864968592053387
            ],
            [
              68.86379632285504,
              22.848378671705692
            ],
            [
              68.8657018457298,
              22.821380679260102
            ],
            [
              68.85940656717541,
              22.79248548521821
            ],
            [
              68.85427362735837,
              22.78716962520546
            ],
            [
              68.83084082912558,
              22.784410196027455
            ],
            [
              68.82146748620735,
              22.78871157167958
            ],
            [
              68.81029088969358,
              22.804645818053277
            ],
            [
              68.79642554794412,
              22.829251099453522
            ],
            [
              68.7919015781741,
              22.849224209466897
            ],
            [
              68.78346238700854,
              22.864869359897313
            ],
            [
              68.77197624032821,
              22.901424408400224
            ],
            [
              68.76742494046427,
              22.909873982677652
            ],
            [
              68.7681825209128,
              22.914659234550438
            ],
            [
              68.7778589104134,
              22.929998067268926
            ],
            [
              68.78338242550437,
              22.947220829729467
            ]
          ]
        ]
      },
      "properties": {
        "kind": "forecast",
        "horizon_hours": 24,
        "valid_at": "2026-07-06T01:17:53.956000+00:00",
        "area_km2": 115.81117434552473,
        "coastline_intersects": false,
        "affected_shoreline_km": 0.0,
        "distance_to_coast_km": 9.467126445783732,
        "coastline_source": "Natural Earth (data\\raw\\ne_10m_coastline.geojson)",
        "coastline_covers_aoi": true,
        "coastline_eta": "2026-07-07T03:41:43.632383+00:00"
      }
    },
    {
      "type": "Feature",
      "geometry": {
        "type": "Polygon",
        "coordinates": [
          [
            [
              68.83736456338328,
              22.746943716998775
            ],
            [
              68.83258982767498,
              22.746635956837398
            ],
            [
              68.8278052714997,
              22.74675410333565
            ],
            [
              68.82305493976747,
              22.74729706900008
            ],
            [
              68.81838256330659,
              22.748259855512803
            ],
            [
              68.81383115746985,
              22.749633599604753
            ],
            [
              68.80944262722889,
              22.751405654409606
            ],
            [
              68.80525738234118,
              22.753559705560644
            ],
            [
              68.80073216443829,
              22.75615952303263
            ],
            [
              68.79686298169126,
              22.75862321432311
            ],
            [
              68.79326054612172,
              22.761413285014836
            ],
            [
              68.78995676482978,
              22.764505036397534
            ],
            [
              68.78698090695887,
              22.767871097417153
            ],
            [
              68.78435934438248,
              22.771481666481698
            ],
            [
              68.77547435639578,
              22.785054577142507
            ],
            [
              68.77392345395634,
              22.787601701518664
            ],
            [
              68.76070134823921,
              22.811012130469393
            ],
            [
              68.75902175612147,
              22.814292564658444
            ],
            [
              68.75762490506361,
              22.81768503915688
            ],
            [
              68.74470066421348,
              22.853189298581437
            ],
            [
              68.74464103097901,
              22.853354093660556
            ],
            [
              68.72913192716,
              22.89646735249033
            ],
            [
              68.72774882029375,
              22.901100844175897
            ],
            [
              68.726892328799,
              22.905842318102774
            ],
            [
              68.72657176247674,
              22.910640542128647
            ],
            [
              68.7267906421189,
              22.915443665566272
            ],
            [
              68.72754665902636,
              22.920199779390877
            ],
            [
              68.72883169751319,
              22.92485747731038
            ],
            [
              68.73063192025997,
              22.929366411631094
            ],
            [
              68.74629720977286,
              22.963089247865625
            ],
            [
              68.74862157223887,
              22.967445514989326
            ],
            [
              68.7514268880099,
              22.971551844812385
            ],
            [
              68.75468221101043,
              22.97536287834098
            ],
            [
              68.75955377444117,
              22.980487399430334
            ],
            [
              68.7629777073509,
              22.983750143972202
            ],
            [
              68.76673148048008,
              22.986685528545856
            ],
            [
              68.77077875853689,
              22.98926512425965
            ],
            [
              68.77508035665647,
              22.991463946526622
            ],
            [
              68.77959462028146,
              22.99326069764901
            ],
            [
              68.78427782927349,
              22.99463797364753
            ],
            [
              68.78908462230575,
              22.995582433305522
            ],
            [
              68.79396843737962,
              22.996084927768273
            ],
            [
              68.7988819641429,
              22.99614058942413
            ],
            [
              68.80377760356586,
              22.995748879193975
            ],
            [
              68.80860793045522,
              22.99491359176413
            ],
            [
              68.8133261542574,
              22.993642818711727
            ],
            [
              68.81788657362002,
              22.991948869884936
            ],
            [
              68.82224502024455,
              22.989848153811458
            ],
            [
              68.82635928767382,
              22.98736101831026
            ],
            [
              68.83018954081227,
              22.984511552872572
            ],
            [
              68.84655069920314,
              22.97105900336968
            ],
            [
              68.84990449255613,
              22.968028631923755
            ],
            [
              68.8529366440885,
              22.96472047198771
            ],
            [
              68.85562046601439,
              22.961163667164225
            ],
            [
              68.85793234481552,
              22.95738954916208
            ],
            [
              68.86681163196728,
              22.941161951423137
            ],
            [
              68.86770187123844,
              22.939448210663183
            ],
            [
              68.89631331676763,
              22.88131308865588
            ],
            [
              68.8981148502588,
              22.87711969022404
            ],
            [
              68.89946654464758,
              22.872783523728824
            ],
            [
              68.90329965786047,
              22.857772723916426
            ],
            [
              68.90408787280887,
              22.853987899001194
            ],
            [
              68.90453320446905,
              22.850155385315052
            ],
            [
              68.9063353061851,
              22.82472224936799
            ],
            [
              68.90642850736916,
              22.820595435699712
            ],
            [
              68.90612438314844,
              22.816477357688676
            ],
            [
              68.90542539203412,
              22.812400821503104
            ],
            [
              68.89951545480004,
              22.78568025014359
            ],
            [
              68.8983262503441,
              22.781368432281376
            ],
            [
              68.89669564509934,
              22.777182568666003
            ],
            [
              68.89463877612928,
              22.773161415451906
            ],
            [
              68.89217472238107,
              22.769342200492346
            ],
            [
              68.88932632693687,
              22.76576027912805
            ],
            [
              68.88611998466781,
              22.76244880739855
            ],
            [
              68.88258539728648,
              22.759438435677907
            ],
            [
              68.87875529808325,
              22.756757025545735
            ],
            [
              68.87466514890208,
              22.754429392487918
            ],
            [
              68.87035281215674,
              22.752477076782462
            ],
            [
              68.86585820090748,
              22.750918144665842
            ],
            [
              68.86122291021182,
              22.749767021596575
            ],
            [
              68.85648983312531,
              22.74903435913876
            ],
            [
              68.83736456338328,
              22.746943716998775
            ]
          ]
        ]
      },
      "properties": {
        "kind": "uncertainty_cone",
        "horizon_hours": 24,
        "area_km2": 365.50228067224083
      }
    }
  ]
}