{
  "type": "FeatureCollection",
  "features": [
    {
      "type": "Feature",
      "geometry": {
        "type": "Polygon",
        "coordinates": [
          [
            [
              68.53708222363377,
              23.112567905397764
            ],
            [
              68.54001902531607,
              23.112376590736144
            ],
            [
              68.5547661163167,
              23.105865500627424
            ],
            [
              68.5797501675993,
              23.08997886315989
            ],
            [
              68.59408433900823,
              23.079881520252805
            ],
            [
              68.61183666314218,
              23.074210387224273
            ],
            [
              68.62931826845941,
              23.062938425010657
            ],
            [
              68.63625596715706,
              23.049080206872347
            ],
            [
              68.63616473483076,
              23.039853926135898
            ],
            [
              68.63794600231076,
              23.027146479102743
            ],
            [
              68.636487755625,
              23.023610792553843
            ],
            [
              68.63221890614574,
              23.022106938039876
            ],
            [
              68.6146173497286,
              23.025097160606418
            ],
            [
              68.60155872458974,
              23.032676220118173
            ],
            [
              68.57014620022873,
              23.044145391702187
            ],
            [
              68.53871846274815,
              23.064653388655472
            ],
            [
              68.52371601931573,
              23.07544504431034
            ],
            [
              68.50958670127622,
              23.08160273712269
            ],
            [
              68.50799470446732,
              23.08510757169666
            ],
            [
              68.50802866753821,
              23.099481405808614
            ],
            [
              68.5092426093289,
              23.102142324731123
            ],
            [
              68.51716917199144,
              23.107830466721484
            ],
            [
              68.52213997250983,
              23.10957852080433
            ],
            [
              68.53708222363377,
              23.112567905397764
            ]
          ]
        ]
      },
      "properties": {
        "area_km2": 63.953,
        "acquisition_at": "2026-07-05T01:17:53.956000+00:00",
        "synthetic": true,
        "exercise": true,
        "banner": "EXERCISE \u2014 SIMULATED DISCHARGE. The SAR scene and every vessel position are real (NRSC EOS-04). The discharge, the vessel identities and the environment field are simulated. No real vessel is accused of anything."
      }
    }
  ]
}